CCSDS_OMM_VERS = 2.0
CREATION_DATE  = 
ORIGINATOR     = 

OBJECT_NAME    = IDEFIX & ARIANE 42P R/B
OBJECT_ID      = 2002-021B
CENTER_NAME    = EARTH
REF_FRAME      = TEME
TIME_SYSTEM    = UTC
MEAN_ELEMENT_THEORY = SGP/SGP4

EPOCH          = 2026-01-20T07:41:24.772704
MEAN_MOTION    = 14.30983311
ECCENTRICITY   = .00114319
INCLINATION    = 98.5826
RA_OF_ASC_NODE = 319.5196
ARG_OF_PERICENTER = 335.3327
MEAN_ANOMALY   = 24.7308

EPHEMERIS_TYPE = 0
CLASSIFICATION_TYPE = U
NORAD_CAT_ID   = 27422
ELEMENT_SET_NO = 999
REV_AT_EPOCH   = 23710
BSTAR          = .18518181E-3
MEAN_MOTION_DOT = .443E-5
MEAN_MOTION_DDOT = 0

CCSDS_OMM_VERS = 2.0
CREATION_DATE  = 
ORIGINATOR     = 

OBJECT_NAME    = AQUA
OBJECT_ID      = 2002-022A
CENTER_NAME    = EARTH
REF_FRAME      = TEME
TIME_SYSTEM    = UTC
MEAN_ELEMENT_THEORY = SGP/SGP4

EPOCH          = 2026-01-20T07:26:10.245120
MEAN_MOTION    = 14.61835321
ECCENTRICITY   = .00019846
INCLINATION    = 98.4092
RA_OF_ASC_NODE = 346.8266
ARG_OF_PERICENTER = 71.7888
MEAN_ANOMALY   = 69.0903

EPHEMERIS_TYPE = 0
CLASSIFICATION_TYPE = U
NORAD_CAT_ID   = 27424
ELEMENT_SET_NO = 999
REV_AT_EPOCH   = 26166
BSTAR          = .30941547E-3
MEAN_MOTION_DOT = .1497E-4
MEAN_MOTION_DDOT = 0

CCSDS_OMM_VERS = 2.0
CREATION_DATE  = 
ORIGINATOR     = 

OBJECT_NAME    = CZ-4B R/B
OBJECT_ID      = 2002-024C
CENTER_NAME    = EARTH
REF_FRAME      = TEME
TIME_SYSTEM    = UTC
MEAN_ELEMENT_THEORY = SGP/SGP4

EPOCH          = 2026-01-20T02:58:13.488672
MEAN_MOTION    = 14.14536727
ECCENTRICITY   = .00505261
INCLINATION    = 98.8938
RA_OF_ASC_NODE = 73.7507
ARG_OF_PERICENTER = 159.9898
MEAN_ANOMALY   = 255.0411

EPHEMERIS_TYPE = 0
CLASSIFICATION_TYPE = U
NORAD_CAT_ID   = 27432
ELEMENT_SET_NO = 999
REV_AT_EPOCH   = 22237
BSTAR          = .64855605E-4
MEAN_MOTION_DOT = .82E-6
MEAN_MOTION_DDOT = 0

CCSDS_OMM_VERS = 2.0
CREATION_DATE  = 
ORIGINATOR     = 

OBJECT_NAME    = MIDORI II (ADEOS-II)
OBJECT_ID      = 2002-056A
CENTER_NAME    = EARTH
REF_FRAME      = TEME
TIME_SYSTEM    = UTC
MEAN_ELEMENT_THEORY = SGP/SGP4

EPOCH          = 2026-01-20T06:57:13.095360
MEAN_MOTION    = 14.29239793
ECCENTRICITY   = .0001859
INCLINATION    = 98.7692
RA_OF_ASC_NODE = 338.4598
ARG_OF_PERICENTER = 111.0348
MEAN_ANOMALY   = 249.1032

EPHEMERIS_TYPE = 0
CLASSIFICATION_TYPE = U
NORAD_CAT_ID   = 27597
ELEMENT_SET_NO = 999
REV_AT_EPOCH   = 20338
BSTAR          = .20121686E-3
MEAN_MOTION_DOT = .466E-5
MEAN_MOTION_DDOT = 0

CCSDS_OMM_VERS = 2.0
CREATION_DATE  = 
ORIGINATOR     = 

OBJECT_NAME    = H-2A R/B
OBJECT_ID      = 2002-056E
CENTER_NAME    = EARTH
REF_FRAME      = TEME
TIME_SYSTEM    = UTC
MEAN_ELEMENT_THEORY = SGP/SGP4

EPOCH          = 2026-01-19T22:14:59.927136
MEAN_MOTION    = 14.33715620
ECCENTRICITY   = .00693821
INCLINATION    = 98.3117
RA_OF_ASC_NODE = 342.1757
ARG_OF_PERICENTER = 307.6268
MEAN_ANOMALY   = 121.0118

EPHEMERIS_TYPE = 0
CLASSIFICATION_TYPE = U
NORAD_CAT_ID   = 27601
ELEMENT_SET_NO = 999
REV_AT_EPOCH   = 20712
BSTAR          = .17399171E-3
MEAN_MOTION_DOT = .454E-5
MEAN_MOTION_DDOT = 0

CCSDS_OMM_VERS = 2.0
CREATION_DATE  = 
ORIGINATOR     = 

OBJECT_NAME    = CZ-4B R/B
OBJECT_ID      = 2003-049C
CENTER_NAME    = EARTH
REF_FRAME      = TEME
TIME_SYSTEM    = UTC
MEAN_ELEMENT_THEORY = SGP/SGP4

EPOCH          = 2026-01-20T05:53:18.630528
MEAN_MOTION    = 14.54955125
ECCENTRICITY   = .00486583
INCLINATION    = 98.6822
RA_OF_ASC_NODE = 13.2718
ARG_OF_PERICENTER = 20.8547
MEAN_ANOMALY   = 339.4620

EPHEMERIS_TYPE = 0
CLASSIFICATION_TYPE = U
NORAD_CAT_ID   = 28059
ELEMENT_SET_NO = 999
REV_AT_EPOCH   = 17955
BSTAR          = .17028731E-3
MEAN_MOTION_DOT = .693E-5
MEAN_MOTION_DDOT = 0

CCSDS_OMM_VERS = 2.0
CREATION_DATE  = 
ORIGINATOR     = 

OBJECT_NAME    = CZ-2C R/B
OBJECT_ID      = 2004-012C
CENTER_NAME    = EARTH
REF_FRAME      = TEME
TIME_SYSTEM    = UTC
MEAN_ELEMENT_THEORY = SGP/SGP4

EPOCH          = 2026-01-20T04:02:03.920352
MEAN_MOTION    = 15.58848036
ECCENTRICITY   = .00171365
INCLINATION    = 97.7350
RA_OF_ASC_NODE = 81.0479
ARG_OF_PERICENTER = 127.8227
MEAN_ANOMALY   = 232.4583

EPHEMERIS_TYPE = 0
CLASSIFICATION_TYPE = U
NORAD_CAT_ID   = 28222
ELEMENT_SET_NO = 999
REV_AT_EPOCH   = 19670
BSTAR          = .76340294E-3
MEAN_MOTION_DOT = .59658E-3
MEAN_MOTION_DDOT = 0

CCSDS_OMM_VERS = 2.0
CREATION_DATE  = 
ORIGINATOR     = 

OBJECT_NAME    = SL-16 R/B
OBJECT_ID      = 2004-021B
CENTER_NAME    = EARTH
REF_FRAME      = TEME
TIME_SYSTEM    = UTC
MEAN_ELEMENT_THEORY = SGP/SGP4

EPOCH          = 2026-01-20T07:14:21.511968
MEAN_MOTION    = 14.14592422
ECCENTRICITY   = .00027558
INCLINATION    = 71.0029
RA_OF_ASC_NODE = 334.0393
ARG_OF_PERICENTER = 132.8072
MEAN_ANOMALY   = 227.3282

EPHEMERIS_TYPE = 0
CLASSIFICATION_TYPE = U
NORAD_CAT_ID   = 28353
ELEMENT_SET_NO = 999
REV_AT_EPOCH   = 11599
BSTAR          = -.39292166E-4
MEAN_MOTION_DOT = -.123E-5
MEAN_MOTION_DDOT = 0

CCSDS_OMM_VERS = 2.0
CREATION_DATE  = 
ORIGINATOR     = 

OBJECT_NAME    = CZ-4B R/B
OBJECT_ID      = 2004-035C
CENTER_NAME    = EARTH
REF_FRAME      = TEME
TIME_SYSTEM    = UTC
MEAN_ELEMENT_THEORY = SGP/SGP4

EPOCH          = 2026-01-20T08:05:03.220512
MEAN_MOTION    = 15.28087028
ECCENTRICITY   = .00339219
INCLINATION    = 97.3562
RA_OF_ASC_NODE = 55.1757
ARG_OF_PERICENTER = 138.0800
MEAN_ANOMALY   = 222.3046

EPHEMERIS_TYPE = 0
CLASSIFICATION_TYPE = U
NORAD_CAT_ID   = 28415
ELEMENT_SET_NO = 999
REV_AT_EPOCH   = 17252
BSTAR          = .48306337E-3
MEAN_MOTION_DOT = .13392E-3
MEAN_MOTION_DDOT = 0

CCSDS_OMM_VERS = 2.0
CREATION_DATE  = 
ORIGINATOR     = 

OBJECT_NAME    = CZ-2C R/B
OBJECT_ID      = 2004-046B
CENTER_NAME    = EARTH
REF_FRAME      = TEME
TIME_SYSTEM    = UTC
MEAN_ELEMENT_THEORY = SGP/SGP4

EPOCH          = 2026-01-20T07:32:00.521952
MEAN_MOTION    = 14.26968626
ECCENTRICITY   = .01384526
INCLINATION    = 98.2002
RA_OF_ASC_NODE = 298.2994
ARG_OF_PERICENTER = 298.2355
MEAN_ANOMALY   = 60.4907

EPHEMERIS_TYPE = 0
CLASSIFICATION_TYPE = U
NORAD_CAT_ID   = 28480
ELEMENT_SET_NO = 999
REV_AT_EPOCH   = 10160
BSTAR          = .12244358E-3
MEAN_MOTION_DOT = .287E-5
MEAN_MOTION_DDOT = 0

CCSDS_OMM_VERS = 2.0
CREATION_DATE  = 
ORIGINATOR     = 

OBJECT_NAME    = ARIANE 5 R/B
OBJECT_ID      = 2004-049H
CENTER_NAME    = EARTH
REF_FRAME      = TEME
TIME_SYSTEM    = UTC
MEAN_ELEMENT_THEORY = SGP/SGP4

EPOCH          = 2026-01-20T07:51:42.579360
MEAN_MOTION    = 14.85136111
ECCENTRICITY   = .00849952
INCLINATION    = 98.2550
RA_OF_ASC_NODE = 187.0013
ARG_OF_PERICENTER = 147.1651
MEAN_ANOMALY   = 213.4885

EPHEMERIS_TYPE = 0
CLASSIFICATION_TYPE = U
NORAD_CAT_ID   = 28499
ELEMENT_SET_NO = 999
REV_AT_EPOCH   = 13861
BSTAR          = .18625527E-3
MEAN_MOTION_DOT = .1636E-4
MEAN_MOTION_DDOT = 0

CCSDS_OMM_VERS = 2.0
CREATION_DATE  = 
ORIGINATOR     = 

OBJECT_NAME    = CZ-2D R/B
OBJECT_ID      = 2005-024B
CENTER_NAME    = EARTH
REF_FRAME      = TEME
TIME_SYSTEM    = UTC
MEAN_ELEMENT_THEORY = SGP/SGP4

EPOCH          = 2026-01-20T00:34:36.692256
MEAN_MOTION    = 15.55774664
ECCENTRICITY   = .00049626
INCLINATION    = 97.3618
RA_OF_ASC_NODE = 33.5449
ARG_OF_PERICENTER = 171.6669
MEAN_ANOMALY   = 188.4669

EPHEMERIS_TYPE = 0
CLASSIFICATION_TYPE = U
NORAD_CAT_ID   = 28738
ELEMENT_SET_NO = 999
REV_AT_EPOCH   = 13220
BSTAR          = .59115538E-3
MEAN_MOTION_DOT = .40835E-3
MEAN_MOTION_DDOT = 0

