IDEFIX & ARIANE 42P R/B 
1 27422U 02021B   26020.32042561  .00000443  00000+0  18518-3 0  9991
2 27422  98.5826 319.5196 0011431 335.3327  24.7308 14.30983311237107
AQUA                    
1 27424U 02022A   26020.30984080  .00001497  00000+0  30942-3 0  9998
2 27424  98.4092 346.8266 0001984  71.7888  69.0903 14.61835321261661
CZ-4B R/B               
1 27432U 02024C   26020.12376723  .00000082  00000+0  64856-4 0  9999
2 27432  98.8938  73.7507 0050526 159.9898 255.0411 14.14536727222375
MIDORI II (ADEOS-II)    
1 27597U 02056A   26020.28973490  .00000466  00000+0  20122-3 0  9990
2 27597  98.7692 338.4598 0001859 111.0348 249.1032 14.29239793203380
H-2A R/B                
1 27601U 02056E   26019.92708249  .00000454  00000+0  17399-3 0  9992
2 27601  98.3117 342.1757 0069382 307.6268 121.0118 14.33715620207124
CZ-4B R/B               
1 28059U 03049C   26020.24535452  .00000693  00000+0  17029-3 0  9999
2 28059  98.6822  13.2718 0048658  20.8547 339.4620 14.54955125179555
CZ-2C R/B               
1 28222U 04012C   26020.16810093  .00059658  00000+0  76340-3 0  9996
2 28222  97.7350  81.0479 0017136 127.8227 232.4583 15.58848036196703
SL-16 R/B               
1 28353U 04021B   26020.30163787 -.00000123  00000+0 -39292-4 0  9999
2 28353  71.0029 334.0393 0002755 132.8072 227.3282 14.14592422115994
CZ-4B R/B               
1 28415U 04035C   26020.33684283  .00013392  00000+0  48306-3 0  9990
2 28415  97.3562  55.1757 0033921 138.0800 222.3046 15.28087028172529
CZ-2C R/B               
1 28480U 04046B   26020.31389493  .00000287  00000+0  12244-3 0  9998
2 28480  98.2002 298.2994 0138452 298.2355  60.4907 14.26968626101609
ARIANE 5 R/B            
1 28499U 04049H   26020.32757615  .00001636  00000+0  18626-3 0  9996
2 28499  98.2550 187.0013 0084995 147.1651 213.4885 14.85136111138614
CZ-2D R/B               
1 28738U 05024B   26020.02403579  .00040835  00000+0  59116-3 0  9993
2 28738  97.3618  33.5449 0004962 171.6669 188.4669 15.55774664132209
